[{"OBJECT_NAME":"KINEIS-5E","OBJECT_ID":"2024-219C","EPOCH":"2026-03-04T20:34:39.095616","MEAN_MOTION":14.72324269,"ECCENTRICITY":0.0002813,"INCLINATION":97.9638,"RA_OF_ASC_NODE":225.5829,"ARG_OF_PERICENTER":138.1134,"MEAN_ANOMALY":222.0289,"EPHEMERIS_TYPE":0,"CLASSIFICATION_TYPE":"U","NORAD_CAT_ID":62083,"ELEMENT_SET_NO":999,"REV_AT_EPOCH":6841,"BSTAR":0.00015352,"MEAN_MOTION_DOT":9.22e-6,"MEAN_MOTION_DDOT":0},{"OBJECT_NAME":"KINEIS-5A","OBJECT_ID":"2024-219D","EPOCH":"2026-03-04T19:42:18.940320","MEAN_MOTION":14.72174422,"ECCENTRICITY":0.0001481,"INCLINATION":97.9779,"RA_OF_ASC_NODE":225.6463,"ARG_OF_PERICENTER":223.6789,"MEAN_ANOMALY":136.4301,"EPHEMERIS_TYPE":0,"CLASSIFICATION_TYPE":"U","NORAD_CAT_ID":62084,"ELEMENT_SET_NO":999,"REV_AT_EPOCH":6841,"BSTAR":0.00019499,"MEAN_MOTION_DOT":1.18e-5,"MEAN_MOTION_DDOT":0},{"OBJECT_NAME":"KINEIS-5B","OBJECT_ID":"2024-219E","EPOCH":"2026-03-04T19:18:04.535424","MEAN_MOTION":14.78050228,"ECCENTRICITY":0.0001171,"INCLINATION":97.9933,"RA_OF_ASC_NODE":228.3248,"ARG_OF_PERICENTER":210.4308,"MEAN_ANOMALY":149.6834,"EPHEMERIS_TYPE":0,"CLASSIFICATION_TYPE":"U","NORAD_CAT_ID":62085,"ELEMENT_SET_NO":999,"REV_AT_EPOCH":6858,"BSTAR":0.00037554,"MEAN_MOTION_DOT":2.661e-5,"MEAN_MOTION_DDOT":0},{"OBJECT_NAME":"KINEIS-2C","OBJECT_ID":"2025-028B","EPOCH":"2026-03-04T03:42:14.423040","MEAN_MOTION":14.72297963,"ECCENTRICITY":0.00013613,"INCLINATION":98.0287,"RA_OF_ASC_NODE":118.3902,"ARG_OF_PERICENTER":39.2836,"MEAN_ANOMALY":320.847,"EPHEMERIS_TYPE":0,"CLASSIFICATION_TYPE":"U","NORAD_CAT_ID":62929,"ELEMENT_SET_NO":999,"REV_AT_EPOCH":5715,"BSTAR":0.00027538357,"MEAN_MOTION_DOT":1.691e-5,"MEAN_MOTION_DDOT":0},{"OBJECT_NAME":"KINEIS-2D","OBJECT_ID":"2025-028C","EPOCH":"2026-03-04T03:26:50.415648","MEAN_MOTION":14.7531795,"ECCENTRICITY":0.00037167,"INCLINATION":97.942,"RA_OF_ASC_NODE":117.5755,"ARG_OF_PERICENTER":160.7586,"MEAN_ANOMALY":199.3764,"EPHEMERIS_TYPE":0,"CLASSIFICATION_TYPE":"U","NORAD_CAT_ID":62930,"ELEMENT_SET_NO":999,"REV_AT_EPOCH":5722,"BSTAR":0.00039398222,"MEAN_MOTION_DOT":2.62e-5,"MEAN_MOTION_DDOT":0},{"OBJECT_NAME":"KINEIS-2E","OBJECT_ID":"2025-028D","EPOCH":"2026-03-04T03:23:12.371424","MEAN_MOTION":14.76694659,"ECCENTRICITY":0.00018275,"INCLINATION":97.9092,"RA_OF_ASC_NODE":116.9695,"ARG_OF_PERICENTER":115.2653,"MEAN_ANOMALY":244.8747,"EPHEMERIS_TYPE":0,"CLASSIFICATION_TYPE":"U","NORAD_CAT_ID":62931,"ELEMENT_SET_NO":999,"REV_AT_EPOCH":5727,"BSTAR":0.00029822302,"MEAN_MOTION_DOT":2.037e-5,"MEAN_MOTION_DDOT":0},{"OBJECT_NAME":"KINEIS-2A","OBJECT_ID":"2025-028E","EPOCH":"2026-03-04T02:44:09.269952","MEAN_MOTION":14.7208323,"ECCENTRICITY":0.00033264,"INCLINATION":98.0697,"RA_OF_ASC_NODE":118.6574,"ARG_OF_PERICENTER":212.8928,"MEAN_ANOMALY":147.2072,"EPHEMERIS_TYPE":0,"CLASSIFICATION_TYPE":"U","NORAD_CAT_ID":62932,"ELEMENT_SET_NO":999,"REV_AT_EPOCH":5714,"BSTAR":0.00026798659,"MEAN_MOTION_DOT":1.635e-5,"MEAN_MOTION_DDOT":0},{"OBJECT_NAME":"KINEIS-2B","OBJECT_ID":"2025-028G","EPOCH":"2026-03-04T03:19:21.278208","MEAN_MOTION":14.73096261,"ECCENTRICITY":0.00048192,"INCLINATION":97.9803,"RA_OF_ASC_NODE":117.8639,"ARG_OF_PERICENTER":121.5955,"MEAN_ANOMALY":238.5724,"EPHEMERIS_TYPE":0,"CLASSIFICATION_TYPE":"U","NORAD_CAT_ID":62934,"ELEMENT_SET_NO":999,"REV_AT_EPOCH":5719,"BSTAR":0.00029356046,"MEAN_MOTION_DOT":1.84e-5,"MEAN_MOTION_DDOT":0},{"OBJECT_NAME":"KINEIS-4E","OBJECT_ID":"2025-056A","EPOCH":"2026-03-04T20:40:02.887392","MEAN_MOTION":14.72338346,"ECCENTRICITY":6.65e-5,"INCLINATION":97.9936,"RA_OF_ASC_NODE":190.2486,"ARG_OF_PERICENTER":189.0365,"MEAN_ANOMALY":171.0831,"EPHEMERIS_TYPE":0,"CLASSIFICATION_TYPE":"U","NORAD_CAT_ID":63300,"ELEMENT_SET_NO":999,"REV_AT_EPOCH":5177,"BSTAR":0.00057719,"MEAN_MOTION_DOT":3.603e-5,"MEAN_MOTION_DDOT":0},{"OBJECT_NAME":"KINEIS-4C","OBJECT_ID":"2025-056B","EPOCH":"2026-03-04T19:20:03.852096","MEAN_MOTION":14.72378057,"ECCENTRICITY":6.48e-5,"INCLINATION":97.9994,"RA_OF_ASC_NODE":190.358,"ARG_OF_PERICENTER":46.8179,"MEAN_ANOMALY":313.3082,"EPHEMERIS_TYPE":0,"CLASSIFICATION_TYPE":"U","NORAD_CAT_ID":63301,"ELEMENT_SET_NO":999,"REV_AT_EPOCH":5177,"BSTAR":0.00050835,"MEAN_MOTION_DOT":3.17e-5,"MEAN_MOTION_DDOT":0},{"OBJECT_NAME":"KINEIS-4D","OBJECT_ID":"2025-056C","EPOCH":"2026-03-04T19:27:19.152576","MEAN_MOTION":14.72349768,"ECCENTRICITY":4.73e-5,"INCLINATION":97.9976,"RA_OF_ASC_NODE":190.3413,"ARG_OF_PERICENTER":319.0063,"MEAN_ANOMALY":41.1109,"EPHEMERIS_TYPE":0,"CLASSIFICATION_TYPE":"U","NORAD_CAT_ID":63302,"ELEMENT_SET_NO":999,"REV_AT_EPOCH":5177,"BSTAR":0.00056395,"MEAN_MOTION_DOT":3.52e-5,"MEAN_MOTION_DDOT":0},{"OBJECT_NAME":"KINEIS-4A","OBJECT_ID":"2025-056D","EPOCH":"2026-03-04T20:15:05.205600","MEAN_MOTION":14.72288841,"ECCENTRICITY":0.0001594,"INCLINATION":97.9933,"RA_OF_ASC_NODE":190.3004,"ARG_OF_PERICENTER":260.8632,"MEAN_ANOMALY":99.2395,"EPHEMERIS_TYPE":0,"CLASSIFICATION_TYPE":"U","NORAD_CAT_ID":63303,"ELEMENT_SET_NO":999,"REV_AT_EPOCH":5177,"BSTAR":-0.00015077,"MEAN_MOTION_DOT":-1.001e-5,"MEAN_MOTION_DDOT":0},{"OBJECT_NAME":"KINEIS-4B","OBJECT_ID":"2025-056E","EPOCH":"2026-03-04T19:50:42.288576","MEAN_MOTION":14.72278535,"ECCENTRICITY":0.0002147,"INCLINATION":97.9936,"RA_OF_ASC_NODE":190.329,"ARG_OF_PERICENTER":206.7311,"MEAN_ANOMALY":153.3786,"EPHEMERIS_TYPE":0,"CLASSIFICATION_TYPE":"U","NORAD_CAT_ID":63304,"ELEMENT_SET_NO":999,"REV_AT_EPOCH":5176,"BSTAR":0.00025269,"MEAN_MOTION_DOT":1.547e-5,"MEAN_MOTION_DDOT":0}]
