KINEIS-5E               
1 62083U 24219C   26063.85739694  .00000922  00000+0  15352-3 0  9996
2 62083  97.9638 225.5829 0002813 138.1134 222.0289 14.72324269 68415
KINEIS-5A               
1 62084U 24219D   26063.82105255  .00001180  00000+0  19499-3 0  9997
2 62084  97.9779 225.6463 0001481 223.6789 136.4301 14.72174422 68410
KINEIS-5B               
1 62085U 24219E   26063.80421916  .00002661  00000+0  37554-3 0  9998
2 62085  97.9933 228.3248 0001171 210.4308 149.6834 14.78050228 68589
KINEIS-2C               
1 62929U 25028B   26063.15433360  .00001691  00000+0  27538-3 0  9991
2 62929  98.0287 118.3902 0001361  39.2836 320.8470 14.72297963 57152
KINEIS-2D               
1 62930U 25028C   26063.14363907  .00002620  00000+0  39398-3 0  9991
2 62930  97.9420 117.5755 0003716 160.7586 199.3764 14.75317950 57221
KINEIS-2E               
1 62931U 25028D   26063.14111541  .00002037  00000+0  29822-3 0  9990
2 62931  97.9092 116.9695 0001827 115.2653 244.8747 14.76694659 57271
KINEIS-2A               
1 62932U 25028E   26063.11399618  .00001635  00000+0  26799-3 0  9994
2 62932  98.0697 118.6574 0003326 212.8928 147.2072 14.72083230 57141
KINEIS-2B               
1 62934U 25028G   26063.13844072  .00001840  00000+0  29356-3 0  9997
2 62934  97.9803 117.8639 0004819 121.5955 238.5724 14.73096261 57199
KINEIS-4E               
1 63300U 25056A   26063.86114453  .00003603  00000+0  57719-3 0  9992
2 63300  97.9936 190.2486 0000665 189.0365 171.0831 14.72338346 51778
KINEIS-4C               
1 63301U 25056B   26063.80560014  .00003170  00000+0  50835-3 0  9996
2 63301  97.9994 190.3580 0000648  46.8179 313.3082 14.72378057 51775
KINEIS-4D               
1 63302U 25056C   26063.81063834  .00003520  00000+0  56395-3 0  9992
2 63302  97.9976 190.3413 0000473 319.0063  41.1109 14.72349768 51777
KINEIS-4A               
1 63303U 25056D   26063.84381025 -.00001001  00000+0 -15077-3 0  9997
2 63303  97.9933 190.3004 0001594 260.8632  99.2395 14.72288841 51772
KINEIS-4B               
1 63304U 25056E   26063.82687834  .00001547  00000+0  25269-3 0  9990
2 63304  97.9936 190.3290 0002147 206.7311 153.3786 14.72278535 51765
